QIANFAN-17              
1 60395U 24140S   25281.85316485  .00000054  00000+0  64979-4 0  9999
2 60395  88.9764 306.1566 0016157  40.1170 320.1171 13.50972764 59370
QIANFAN-18              
1 60396U 24140T   25281.83260617  .00000056  00000+0  67653-4 0  9997
2 60396  88.9756 305.6971 0014928  24.2637 335.9214 13.50974286 58766
QIANFAN-19              
1 61552U 24185A   25281.84504045  .00000620  00000+0  31818-3 0  9998
2 61552  88.9762  85.3756 0008221 140.7262 219.4522 14.14190647 60491
QIANFAN-20              
1 61553U 24185B   25281.83969115  .00000609  00000+0  34520-3 0  9991
2 61553  88.9759  85.6346 0005894 168.5398 191.5921 14.08740559 60351
QIANFAN-21              
1 61554U 24185C   25281.82522279  .00000925  00000+0  40856-3 0  9997
2 61554  88.9678  84.5807 0009689 204.1550 155.9188 14.22468112 60745
QIANFAN-22              
1 61555U 24185D   25281.82809670  .00000247  00000+0  20202-3 0  9991
2 61555  88.9745  86.3566 0006556 176.5045 183.6173 13.86267958 59940
QIANFAN-23              
1 61556U 24185E   25281.84122431  .00000829  00000+0  41180-3 0  9991
2 61556  88.9755  85.2159 0008677 152.2698 207.8954 14.16183095 60568
QIANFAN-24              
1 61557U 24185F   25281.88282280  .00000936  00000+0  40393-3 0  9999
2 61557  88.9739  84.7222 0010963 140.7017 219.4972 14.23673883 60795
